QIANFAN-49              
1 62250U 24232P   25271.29447785  .00000156  00000+0  22221-3 0  9994
2 62250  88.9994  48.8355 0015523  58.1351 302.1308 13.50973990 57652
QIANFAN-50              
1 62251U 24232Q   25270.87479844  .00000208  00000+0  30400-3 0  9995
2 62251  88.9997  48.8819 0017245  60.0492 300.2369 13.50969182 57623
QIANFAN-51              
1 62252U 24232R   25271.30268627  .00000154  00000+0  21993-3 0  9997
2 62252  88.9993  48.8371 0014772  62.9481 297.3176 13.50971458 57670
QIANFAN-52              
1 62253U 24232S   25271.33148059  .00000140  00000+0  19869-3 0  9991
2 62253  88.9987  48.7106 0016617  55.2178 305.0534 13.50973951 57762
QIANFAN-53              
1 62254U 24232T   25271.31093914  .00000144  00000+0  20419-3 0  9996
2 62254  88.9997  48.8116 0015528  56.6078 303.6557 13.50969813 57727
QIANFAN-54              
1 62255U 24232U   25271.35203946  .00000150  00000+0  21426-3 0  9995
2 62255  88.9989  48.4925 0003938  96.0446 264.1154 13.50971914 89232
QIANFAN-55              
1 62785U 25016A   25271.30391492  .00000065  00000+0  81781-4 0  9999
2 62785  88.9755 111.0042 0016415 201.4630 158.5834 13.50965615 37009
QIANFAN-56              
1 62786U 25016B   25271.32048749  .00000064  00000+0  79814-4 0  9999
2 62786  88.9727 110.8594 0015023 203.4650 156.5817 13.50973639 37055
